OBJECT_NAME,OBJECT_ID,EPOCH,MEAN_MOTION,ECCENTRICITY,INCLINATION,RA_OF_ASC_NODE,ARG_OF_PERICENTER,MEAN_ANOMALY,EPHEMERIS_TYPE,CLASSIFICATION_TYPE,NORAD_CAT_ID,ELEMENT_SET_NO,REV_AT_EPOCH,BSTAR,MEAN_MOTION_DOT,MEAN_MOTION_DDOT
SL-16 R/B,1994-077B,2026-07-18T01:42:50.789088,14.15574519,.00041187,70.9821,78.1883,301.2180,58.8538,0,U,23405,999,63468,.69776882E-4,.89E-6,0
ARIANE 40+ R/B,1995-021B,2026-07-18T04:19:16.105728,14.39848539,.00079569,98.4399,268.8052,108.9553,276.7248,0,U,23561,999,63802,.49199224E-4,.111E-5,0
SL-16 R/B,1995-058B,2026-07-17T15:51:22.516992,14.15510072,.001463,71.0208,267.3789,279.6017,80.3453,0,U,23705,999,58624,.16117023E-3,.268E-5,0
SL-16 R/B,1996-051B,2026-07-18T04:36:17.669088,14.12457708,.00179975,70.7644,259.0355,294.2174,65.7065,0,U,24298,999,54007,.10555224E-3,.146E-5,0
ORBVIEW 2 (SEASTAR),1997-037A,2026-07-18T00:51:46.556064,14.35567535,.00030004,98.8717,6.9144,55.2660,304.8807,0,U,24883,999,52717,.45468374E-4,.84E-6,0
SL-16 R/B,1998-043G,2026-07-18T03:56:24.598176,14.26072987,.00098892,98.8380,153.5929,3.0405,357.0833,0,U,25400,999,45758,.21878571E-4,.7E-7,0
SL-16 R/B,1998-045B,2026-07-18T04:08:57.884352,14.16204903,.00080201,71.0104,267.1665,202.0867,157.9912,0,U,25407,999,44557,-.3510649E-5,-.55E-6,0
ISS (ZARYA),1998-067A,2026-07-18T02:08:01.938048,15.49037991,.00067939,51.6318,147.1664,308.8910,51.1472,0,U,25544,999,57654,.76428863E-4,.3768E-4,0
CZ-4B R/B,1999-025C,2026-07-18T02:24:15.881184,14.18288013,.00364962,98.6470,240.1583,331.2716,48.0269,0,U,25732,999,40665,.22110732E-4,.3E-7,0
OKEAN-O,1999-039A,2026-07-18T04:00:31.201056,14.80499236,.00008855,97.9298,257.6065,94.0433,266.0881,0,U,25860,999,45369,.38519463E-4,.243E-5,0
SL-16 R/B,1999-039B,2026-07-18T03:50:30.433344,14.81872355,.00145495,97.9821,257.9321,188.5967,171.4998,0,U,25861,999,45618,.32937552E-4,.207E-5,0
DELTA 2 R/B,1999-041E,2026-07-18T05:57:34.615584,14.12092267,.05014428,51.7611,139.6966,13.7707,347.6344,0,U,25876,999,38147,.18225831E-3,.891E-5,0
HELIOS 1B,1999-064A,2026-07-18T04:15:56.337696,14.88079025,.00017798,98.1580,105.2111,51.7854,308.3522,0,U,25977,999,70466,.69056337E-4,.576E-5,0
TERRA,1999-068A,2026-07-18T05:56:49.259040,14.61125040,.00035248,97.9439,247.5598,116.8300,317.7210,0,U,25994,999,41414,.4241772E-4,.164E-5,0
SL-16 R/B,2000-006B,2026-07-18T03:38:04.362432,14.15838089,.0017305,71.0003,183.5170,335.9259,24.1054,0,U,26070,999,36702,.43671483E-4,.38E-6,0
TITAN 4B R/B,2000-047B,2026-07-18T06:04:22.144512,15.10341500,.00457493,67.9873,33.1181,255.7317,103.8750,0,U,26474,999,41262,.80998323E-4,.1221E-4,0
ENVISAT,2002-009A,2026-07-18T06:42:23.438880,14.39071118,.00013128,98.3848,149.9073,83.1104,81.8570,0,U,27386,999,27795,.21144162E-4,.22E-6,0
IDEFIX & ARIANE 42P R/B,2002-021B,2026-07-18T05:49:18.994080,14.31094475,.00120948,98.5941,136.3901,157.5830,202.5884,0,U,27422,999,26269,.46310118E-4,.78E-6,0
AQUA,2002-022A,2026-07-18T06:26:38.232384,14.62130949,.00012441,98.4299,169.1768,101.4413,9.3055,0,U,27424,999,28781,.75901232E-4,.332E-5,0
CZ-4B R/B,2002-024C,2026-07-18T03:36:09.931680,14.14568430,.00503161,98.8683,251.7663,13.6436,45.8529,0,U,27432,999,24768,.18292282E-4,-.9E-7,0
MIDORI II (ADEOS-II),2002-056A,2026-07-18T06:55:34.871520,14.29363859,.00013543,98.7896,158.8161,37.3491,322.7784,0,U,27597,999,22895,.53178331E-4,.9E-6,0
H-2A R/B,2002-056E,2026-07-18T03:00:50.811840,14.33834808,.00710284,98.3330,154.6753,132.2936,238.6642,0,U,27601,999,23280,.56371616E-4,.12E-5,0
CZ-4B R/B,2003-049C,2026-07-18T05:50:47.724288,14.55117220,.00478617,98.6911,199.3286,191.8741,168.1331,0,U,28059,999,20558,.37337603E-4,.112E-5,0
CZ-2C R/B,2004-012C,2026-07-18T03:33:10.666368,15.85854091,.0010991,97.7050,278.5741,183.0866,177.0338,0,U,28222,999,22479,.44585946E-3,.109829E-2,0
SL-16 R/B,2004-021B,2026-07-18T06:35:18.664512,14.14616454,.00062026,71.0030,318.4464,222.4901,137.5742,0,U,28353,999,14130,-.26668355E-4,-.99E-6,0
CZ-4B R/B,2004-035C,2026-07-18T01:13:04.164960,15.31014525,.00294544,97.3352,231.7827,222.0369,137.8613,0,U,28415,999,19984,.13131689E-3,.3907E-4,0
CZ-2C R/B,2004-046B,2026-07-18T04:23:49.988544,14.27033824,.01402948,98.1913,106.0221,128.6072,232.7770,0,U,28480,999,12711,.39835897E-4,.68E-6,0
ARIANE 5 R/B,2004-049H,2026-07-18T01:09:16.686720,14.85480595,.00825452,98.2744,12.4986,288.8829,70.3449,0,U,28499,999,16514,.33467431E-4,.24E-5,0
CZ-2D R/B,2005-024B,2026-07-18T01:00:33.901056,15.73001081,.00028551,97.3468,220.0899,185.3434,174.7800,0,U,28738,999,16018,.33432129E-3,.45527E-3,0
ALOS (DAICHI),2006-002A,2026-07-17T20:32:04.105248,14.70104768,.00008703,98.1339,154.3314,104.7723,255.3579,0,U,28931,999,9260,.86937074E-4,.473E-5,0
