SL-16 R/B               
1 23405U 94077B   26199.07142117  .00000089  00000+0  69777-4 0  9997
2 23405  70.9821  78.1883 0004118 301.2180  58.8538 14.15574519634683
ARIANE 40+ R/B          
1 23561U 95021B   26199.18004752  .00000111  00000+0  49199-4 0  9996
2 23561  98.4399 268.8052 0007956 108.9553 276.7248 14.39848539638029
SL-16 R/B               
1 23705U 95058B   26198.66067728  .00000268  00000+0  16117-3 0  9996
2 23705  71.0208 267.3789 0014630 279.6017  80.3453 14.15510072586249
SL-16 R/B               
1 24298U 96051B   26199.19187117  .00000146  00000+0  10555-3 0  9997
2 24298  70.7644 259.0355 0017997 294.2174  65.7065 14.12457708540070
ORBVIEW 2 (SEASTAR)     
1 24883U 97037A   26199.03595551  .00000084  00000+0  45468-4 0  9993
2 24883  98.8717   6.9144 0003000  55.2660 304.8807 14.35567535527174
SL-16 R/B               
1 25400U 98043G   26199.16417359  .00000007  00000+0  21879-4 0  9995
2 25400  98.8380 153.5929 0009889   3.0405 357.0833 14.26072987457583
SL-16 R/B               
1 25407U 98045B   26199.17289218 -.00000055  00000+0 -35106-5 0  9990
2 25407  71.0104 267.1665 0008020 202.0867 157.9912 14.16204903445570
ISS (ZARYA)             
1 25544U 98067A   26199.08891132  .00003768  00000+0  76429-4 0  9994
2 25544  51.6318 147.1664 0006793 308.8910  51.1472 15.49037991576544
CZ-4B R/B               
1 25732U 99025C   26199.10018381  .00000003  00000+0  22111-4 0  9996
2 25732  98.6470 240.1583 0036496 331.2716  48.0269 14.18288013406655
OKEAN-O                 
1 25860U 99039A   26199.16702779  .00000243  00000+0  38519-4 0  9995
2 25860  97.9298 257.6065 0000885  94.0433 266.0881 14.80499236453696
SL-16 R/B               
1 25861U 99039B   26199.16007446  .00000207  00000+0  32938-4 0  9994
2 25861  97.9821 257.9321 0014549 188.5967 171.4998 14.81872355456183
DELTA 2 R/B             
1 25876U 99041E   26199.24831731  .00000891  00000+0  18226-3 0  9996
2 25876  51.7611 139.6966 0501442  13.7707 347.6344 14.12092267381470
HELIOS 1B               
1 25977U 99064A   26199.17773539  .00000576  00000+0  69056-4 0  9994
2 25977  98.1580 105.2111 0001779  51.7854 308.3522 14.88079025704668
TERRA                   
1 25994U 99068A   26199.24779235  .00000164  00000+0  42418-4 0  9990
2 25994  97.9439 247.5598 0003524 116.8300 317.7210 14.61125040414144
SL-16 R/B               
1 26070U 00006B   26199.15143938  .00000038  00000+0  43671-4 0  9997
2 26070  71.0003 183.5170 0017305 335.9259  24.1054 14.15838089367026
TITAN 4B R/B            
1 26474U 00047B   26199.25303408  .00001221  00000+0  80998-4 0  9999
2 26474  67.9873  33.1181 0045749 255.7317 103.8750 15.10341500412620
ENVISAT                 
1 27386U 02009A   26199.27943795  .00000022  00000+0  21144-4 0  9999
2 27386  98.3848 149.9073 0001312  83.1104  81.8570 14.39071118277959
IDEFIX & ARIANE 42P R/B 
1 27422U 02021B   26199.24258095  .00000078  00000+0  46310-4 0  9996
2 27422  98.5941 136.3901 0012094 157.5830 202.5884 14.31094475262695
AQUA                    
1 27424U 02022A   26199.26849806  .00000332  00000+0  75901-4 0  9998
2 27424  98.4299 169.1768 0001244 101.4413   9.3055 14.62130949287812
CZ-4B R/B               
1 27432U 02024C   26199.15011495 -.00000009  00000+0  18292-4 0  9994
2 27432  98.8683 251.7663 0050316  13.6436  45.8529 14.14568430247686
MIDORI II (ADEOS-II)    
1 27597U 02056A   26199.28859805  .00000090  00000+0  53178-4 0  9991
2 27597  98.7896 158.8161 0001354  37.3491 322.7784 14.29363859228958
H-2A R/B                
1 27601U 02056E   26199.12558810  .00000120  00000+0  56372-4 0  9995
2 27601  98.3330 154.6753 0071028 132.2936 238.6642 14.33834808232807
CZ-4B R/B               
1 28059U 03049C   26199.24360792  .00000112  00000+0  37338-4 0  9991
2 28059  98.6911 199.3286 0047861 191.8741 168.1331 14.55117220205586
CZ-2C R/B               
1 28222U 04012C   26199.14804012  .00109829  00000+0  44586-3 0  9998
2 28222  97.7050 278.5741 0010991 183.0866 177.0338 15.85854091224791
SL-16 R/B               
1 28353U 04021B   26199.27452158 -.00000099  00000+0 -26668-4 0  9990
2 28353  71.0030 318.4464 0006202 222.4901 137.5742 14.14616454141308
CZ-4B R/B               
1 28415U 04035C   26199.05074265  .00003907  00000+0  13132-3 0  9999
2 28415  97.3352 231.7827 0029454 222.0369 137.8613 15.31014525199846
CZ-2C R/B               
1 28480U 04046B   26199.18321746  .00000068  00000+0  39836-4 0  9991
2 28480  98.1913 106.0221 0140294 128.6072 232.7770 14.27033824127117
ARIANE 5 R/B            
1 28499U 04049H   26199.04810980  .00000240  00000+0  33467-4 0  9998
2 28499  98.2744  12.4986 0082545 288.8829  70.3449 14.85480595165140
CZ-2D R/B               
1 28738U 05024B   26199.04205904  .00045527  00000+0  33432-3 0  9990
2 28738  97.3468 220.0899 0002855 185.3434 174.7800 15.73001081160184
ALOS (DAICHI)           
1 28931U 06002A   26198.85560307  .00000473  00000+0  86937-4 0  9991
2 28931  98.1339 154.3314 0000870 104.7723 255.3579 14.70104768 92609
